[{"OBJECT_NAME":"STARLINK-35052","OBJECT_ID":"2025-200W","EPOCH":"2026-03-09T18:22:26.334912","MEAN_MOTION":15.05644096,"ECCENTRICITY":2.41e-5,"INCLINATION":97.6015,"RA_OF_ASC_NODE":139.8947,"ARG_OF_PERICENTER":162.8845,"MEAN_ANOMALY":197.239,"EPHEMERIS_TYPE":0,"CLASSIFICATION_TYPE":"U","NORAD_CAT_ID":65540,"ELEMENT_SET_NO":999,"REV_AT_EPOCH":2906,"BSTAR":9.8704499e-5,"MEAN_MOTION_DOT":1.364e-5,"MEAN_MOTION_DDOT":0},{"OBJECT_NAME":"SL-8 R\/B","OBJECT_ID":"1968-040B","EPOCH":"2026-03-09T18:37:46.369632","MEAN_MOTION":15.03260494,"ECCENTRICITY":0.00239141,"INCLINATION":74.0322,"RA_OF_ASC_NODE":313.5182,"ARG_OF_PERICENTER":137.361,"MEAN_ANOMALY":222.9441,"EPHEMERIS_TYPE":0,"CLASSIFICATION_TYPE":"U","NORAD_CAT_ID":3230,"ELEMENT_SET_NO":999,"REV_AT_EPOCH":9002,"BSTAR":0.00025747843,"MEAN_MOTION_DOT":3.469e-5,"MEAN_MOTION_DDOT":0}]
